{"type": "FeatureCollection", "features": [ {"type": "Feature", "properties": {"norad_id": 30702, "name": "FENGYUN 1C DEB", "group": "fengyun-1c-debris", "lat": -29.88145726912989, "lon": 178.0797271179345, "alt_km": 897.1061569503445, "timestamp": "2025-12-09T04:51:47.771349+00:00", "meta": {"OBJECT_NAME": "FENGYUN 1C DEB", "OBJECT_ID": "1999-025ARL", "EPOCH": "2025-12-08T07:24:55.702656", "MEAN_MOTION": 14.03577281, "ECCENTRICITY": 0.00684754, "INCLINATION": 98.77, "RA_OF_ASC_NODE": 2.3067, "ARG_OF_PERICENTER": 314.4388, "MEAN_ANOMALY": 63.446, "EPHEMERIS_TYPE": 0, "CLASSIFICATION_TYPE": "U", "NORAD_CAT_ID": 30702, "ELEMENT_SET_NO": 999, "REV_AT_EPOCH": 96100, "BSTAR": 0.0011775507, "MEAN_MOTION_DOT": 1.843e-05, "MEAN_MOTION_DDOT": 0}, "tle": {"line1": "1 30702U 99025ARL 25342.30897804  .00001843  00000+0  11776-2 0  9991", "line2": "2 30702  98.7700   2.3067 0068475 314.4388  63.4460 14.03577281961001"}}, "geometry": {"type": "Point", "coordinates": [178.0797271179345, -29.88145726912989]}}, {"type": "Feature", "properties": {"norad_id": 30703, "name": "FENGYUN 1C DEB", "group": "fengyun-1c-debris", "lat": 65.6082011737533, "lon": 168.91880800293683, "alt_km": 905.1468315139382, "timestamp": "2025-12-09T04:51:47.771360+00:00", "meta": {"OBJECT_NAME": "FENGYUN 1C DEB", "OBJECT_ID": "1999-025ARM", "EPOCH": "2025-12-07T22:10:33.240576", "MEAN_MOTION": 14.19284602, "ECCENTRICITY": 0.0118002, "INCLINATION": 99.1418, "RA_OF_ASC_NODE": 326.7995, "ARG_OF_PERICENTER": 305.7662, "MEAN_ANOMALY": 117.1693, "EPHEMERIS_TYPE": 0, "CLASSIFICATION_TYPE": "U", "NORAD_CAT_ID": 30703, "ELEMENT_SET_NO": 999, "REV_AT_EPOCH": 96472, "BSTAR": 0.0018114229, "MEAN_MOTION_DOT": 4.028e-05, "MEAN_MOTION_DDOT": 0}, "tle": {"line1": "1 30703U 99025ARM 25341.92399584  .00004028  00000+0  18114-2 0  9992", "line2": "2 30703  99.1418 326.7995 0118002 305.7662 117.1693 14.19284602964722"}}, "geometry": {"type": "Point", "coordinates": [168.91880800293683, 65.6082011737533]}}, {"type": "Feature", "properties": {"norad_id": 30704, "name": "FENGYUN 1C DEB", "group": "fengyun-1c-debris", "lat": -79.8081268011746, "lon": 42.348582294010065, "alt_km": 951.4610689751289, "timestamp": "2025-12-09T04:51:47.771370+00:00", "meta": {"OBJECT_NAME": "FENGYUN 1C DEB", "OBJECT_ID": "1999-025ARN", "EPOCH": "2025-12-08T11:09:37.588896", "MEAN_MOTION": 14.02039865, "ECCENTRICITY": 0.0081675, "INCLINATION": 98.8713, "RA_OF_ASC_NODE": 341.3205, "ARG_OF_PERICENTER": 111.6659, "MEAN_ANOMALY": 42.1765, "EPHEMERIS_TYPE": 0, "CLASSIFICATION_TYPE": "U", "NORAD_CAT_ID": 30704, "ELEMENT_SET_NO": 999, "REV_AT_EPOCH": 96051, "BSTAR": 0.00063893696, "MEAN_MOTION_DOT": 9.62e-06, "MEAN_MOTION_DDOT": 0}, "tle": {"line1": "1 30704U 99025ARN 25342.46501839  .00000962  00000+0  63894-3 0  9990", "line2": "2 30704  98.8713 341.3205 0081675 111.6659  42.1765 14.02039865960510"}}, "geometry": {"type": "Point", "coordinates": [42.348582294010065, -79.8081268011746]}}, {"type": "Feature", "properties": {"norad_id": 30705, "name": "FENGYUN 1C DEB", "group": "fengyun-1c-debris", "lat": -49.3744797657089, "lon": -108.22128970466912, "alt_km": 889.990550313375, "timestamp": "2025-12-09T04:51:47.771380+00:00", "meta": {"OBJECT_NAME": "FENGYUN 1C DEB", "OBJECT_ID": "1999-025ARP", "EPOCH": "2025-12-08T05:16:54.881760", "MEAN_MOTION": 13.81284685, "ECCENTRICITY": 0.01993097, "INCLINATION": 102.1805, "RA_OF_ASC_NODE": 85.0965, "ARG_OF_PERICENTER": 292.8664, "MEAN_ANOMALY": 96.3844, "EPHEMERIS_TYPE": 0, "CLASSIFICATION_TYPE": "U", "NORAD_CAT_ID": 30705, "ELEMENT_SET_NO": 999, "REV_AT_EPOCH": 93947, "BSTAR": 0.0034436172, "MEAN_MOTION_DOT": 4.184e-05, "MEAN_MOTION_DDOT": 0}, "tle": {"line1": "1 30705U 99025ARP 25342.22007965  .00004184  00000+0  34436-2 0  9995", "line2": "2 30705 102.1805  85.0965 0199309 292.8664  96.3844 13.81284685939477"}}, "geometry": {"type": "Point", "coordinates": [-108.22128970466912, -49.3744797657089]}}, {"type": "Feature", "properties": {"norad_id": 30706, "name": "FENGYUN 1C DEB", "group": "fengyun-1c-debris", "lat": -40.978025699288885, "lon": -114.34307918288056, "alt_km": 829.1533825737206, "timestamp": "2025-12-09T04:51:47.771390+00:00", "meta": {"OBJECT_NAME": "FENGYUN 1C DEB", "OBJECT_ID": "1999-025ARQ", "EPOCH": "2025-12-08T15:35:27.222432", "MEAN_MOTION": 14.26401079, "ECCENTRICITY": 0.0026281, "INCLINATION": 99.0647, "RA_OF_ASC_NODE": 237.1139, "ARG_OF_PERICENTER": 140.1943, "MEAN_ANOMALY": 220.117, "EPHEMERIS_TYPE": 0, "CLASSIFICATION_TYPE": "U", "NORAD_CAT_ID": 30706, "ELEMENT_SET_NO": 999, "REV_AT_EPOCH": 97569, "BSTAR": 0.0014795, "MEAN_MOTION_DOT": 3.525e-05, "MEAN_MOTION_DDOT": 0}, "tle": {"line1": "1 30706U 99025ARQ 25342.64962063  .00003525  00000+0  14795-2 0  9995", "line2": "2 30706  99.0647 237.1139 0026281 140.1943 220.1170 14.26401079975693"}}, "geometry": {"type": "Point", "coordinates": [-114.34307918288056, -40.978025699288885]}}, {"type": "Feature", "properties": {"norad_id": 30707, "name": "FENGYUN 1C DEB", "group": "fengyun-1c-debris", "lat": -6.5956393290861355, "lon": -143.7854351909828, "alt_km": 812.3472675505027, "timestamp": "2025-12-09T04:51:47.771400+00:00", "meta": {"OBJECT_NAME": "FENGYUN 1C DEB", "OBJECT_ID": "1999-025ARR", "EPOCH": "2025-12-08T15:15:52.202304", "MEAN_MOTION": 14.26643735, "ECCENTRICITY": 0.0028048, "INCLINATION": 99.4127, "RA_OF_ASC_NODE": 36.7048, "ARG_OF_PERICENTER": 81.6571, "MEAN_ANOMALY": 76.1207, "EPHEMERIS_TYPE": 0, "CLASSIFICATION_TYPE": "U", "NORAD_CAT_ID": 30707, "ELEMENT_SET_NO": 999, "REV_AT_EPOCH": 96744, "BSTAR": 0.0023106, "MEAN_MOTION_DOT": 5.56e-05, "MEAN_MOTION_DDOT": 0}, "tle": {"line1": "1 30707U 99025ARR 25342.63602086  .00005560  00000+0  23106-2 0  9998", "line2": "2 30707  99.4127  36.7048 0028048  81.6571  76.1207 14.26643735967443"}}, "geometry": {"type": "Point", "coordinates": [-143.7854351909828, -6.5956393290861355]}}, {"type": "Feature", "properties": {"norad_id": 30708, "name": "FENGYUN 1C DEB", "group": "fengyun-1c-debris", "lat": 71.7667645118784, "lon": -30.71695870237783, "alt_km": 848.7186373604982, "timestamp": "2025-12-09T04:51:47.771409+00:00", "meta": {"OBJECT_NAME": "FENGYUN 1C DEB", "OBJECT_ID": "1999-025ARS", "EPOCH": "2025-12-08T20:35:49.052832", "MEAN_MOTION": 14.12175908, "ECCENTRICITY": 0.0007854, "INCLINATION": 98.6907, "RA_OF_ASC_NODE": 356.614, "ARG_OF_PERICENTER": 205.994, "MEAN_ANOMALY": 277.972, "EPHEMERIS_TYPE": 0, "CLASSIFICATION_TYPE": "U", "NORAD_CAT_ID": 30708, "ELEMENT_SET_NO": 999, "REV_AT_EPOCH": 96781, "BSTAR": 0.00028884, "MEAN_MOTION_DOT": 4.88e-06, "MEAN_MOTION_DDOT": 0}, "tle": {"line1": "1 30708U 99025ARS 25342.85820663  .00000488  00000+0  28884-3 0  9999", "line2": "2 30708  98.6907 356.6140 0007854 205.9940 277.9720 14.12175908967810"}}, "geometry": {"type": "Point", "coordinates": [-30.71695870237783, 71.7667645118784]}}, {"type": "Feature", "properties": {"norad_id": 30709, "name": "FENGYUN 1C DEB", "group": "fengyun-1c-debris", "lat": 34.90385750730653, "lon": -45.395780218151494, "alt_km": 856.8334075021503, "timestamp": "2025-12-09T04:51:47.771419+00:00", "meta": {"OBJECT_NAME": "FENGYUN 1C DEB", "OBJECT_ID": "1999-025ART", "EPOCH": "2025-12-08T03:17:01.848480", "MEAN_MOTION": 14.17400342, "ECCENTRICITY": 0.00829348, "INCLINATION": 99.1447, "RA_OF_ASC_NODE": 319.9608, "ARG_OF_PERICENTER": 283.275, "MEAN_ANOMALY": 75.9184, "EPHEMERIS_TYPE": 0, "CLASSIFICATION_TYPE": "U", "NORAD_CAT_ID": 30709, "ELEMENT_SET_NO": 999, "REV_AT_EPOCH": 95931, "BSTAR": 0.0035451867, "MEAN_MOTION_DOT": 7.384e-05, "MEAN_MOTION_DDOT": 0}, "tle": {"line1": "1 30709U 99025ART 25342.13682695  .00007384  00000+0  35452-2 0  9992", "line2": "2 30709  99.1447 319.9608 0082934 283.2750  75.9184 14.17400342959311"}}, "geometry": {"type": "Point", "coordinates": [-45.395780218151494, 34.90385750730653]}}, {"type": "Feature", "properties": {"norad_id": 30710, "name": "FENGYUN 1C DEB", "group": "fengyun-1c-debris", "lat": -26.413089207333933, "lon": 44.624813883699574, "alt_km": 986.3756353877134, "timestamp": "2025-12-09T04:51:47.771429+00:00", "meta": {"OBJECT_NAME": "FENGYUN 1C DEB", "OBJECT_ID": "1999-025ARU", "EPOCH": "2025-12-08T11:29:40.437600", "MEAN_MOTION": 13.9410372, "ECCENTRICITY": 0.02229863, "INCLINATION": 102.7458, "RA_OF_ASC_NODE": 230.0846, "ARG_OF_PERICENTER": 93.3807, "MEAN_ANOMALY": 80.9567, "EPHEMERIS_TYPE": 0, "CLASSIFICATION_TYPE": "U", "NORAD_CAT_ID": 30710, "ELEMENT_SET_NO": 999, "REV_AT_EPOCH": 94729, "BSTAR": 0.002941917, "MEAN_MOTION_DOT": 4.722e-05, "MEAN_MOTION_DDOT": 0}, "tle": {"line1": "1 30710U 99025ARU 25342.47894025  .00004722  00000+0  29419-2 0  9992", "line2": "2 30710 102.7458 230.0846 0222986  93.3807  80.9567 13.94103720947298"}}, "geometry": {"type": "Point", "coordinates": [44.624813883699574, -26.413089207333933]}}, {"type": "Feature", "properties": {"norad_id": 30714, "name": "FENGYUN 1C DEB", "group": "fengyun-1c-debris", "lat": 73.55285775846325, "lon": 0.02356239282618052, "alt_km": 914.1621244483249, "timestamp": "2025-12-09T04:51:47.771449+00:00", "meta": {"OBJECT_NAME": "FENGYUN 1C DEB", "OBJECT_ID": "1999-025ARY", "EPOCH": "2025-12-08T20:15:25.856928", "MEAN_MOTION": 14.03283696, "ECCENTRICITY": 0.0066733, "INCLINATION": 98.8378, "RA_OF_ASC_NODE": 31.4795, "ARG_OF_PERICENTER": 293.6959, "MEAN_ANOMALY": 131.4315, "EPHEMERIS_TYPE": 0, "CLASSIFICATION_TYPE": "U", "NORAD_CAT_ID": 30714, "ELEMENT_SET_NO": 999, "REV_AT_EPOCH": 95938, "BSTAR": 0.0010544, "MEAN_MOTION_DOT": 1.635e-05, "MEAN_MOTION_DDOT": 0}, "tle": {"line1": "1 30714U 99025ARY 25342.84404927  .00001635  00000+0  10544-2 0  9994", "line2": "2 30714  98.8378  31.4795 0066733 293.6959 131.4315 14.03283696959381"}}, "geometry": {"type": "Point", "coordinates": [0.02356239282618052, 73.55285775846325]}}]}